OBJECT_NAME,OBJECT_ID,EPOCH,MEAN_MOTION,ECCENTRICITY,INCLINATION,RA_OF_ASC_NODE,ARG_OF_PERICENTER,MEAN_ANOMALY,EPHEMERIS_TYPE,CLASSIFICATION_TYPE,NORAD_CAT_ID,ELEMENT_SET_NO,REV_AT_EPOCH,BSTAR,MEAN_MOTION_DOT,MEAN_MOTION_DDOT
JCSAT-3A,2006-033A,2026-06-25T06:21:53.687808,1.00272753,.0002389,0.0276,295.5435,162.2123,39.1199,0,U,29272,999,4782,0,-.335E-5,0
KOREASAT 5 (MUGUNGWHA 5),2006-034A,2026-06-24T23:26:56.078880,1.00270862,.00017079,1.8056,82.9035,50.7768,244.2343,0,U,29349,999,4139,0,-.35E-5,0
DIRECTV 9S,2006-043A,2026-06-25T03:33:47.081376,1.00271747,.00053545,2.4416,80.8160,17.3958,127.3223,0,U,29494,999,5146,0,-.106E-5,0
OPTUS D1,2006-043B,2026-06-25T06:28:38.042400,1.00271173,.00037083,3.0558,79.5646,6.4701,76.5055,0,U,29495,999,7220,0,-.176E-5,0
BADR-4,2006-051A,2026-06-25T05:14:38.786208,1.00275981,.00050231,2.0257,81.0445,4.8852,300.5743,0,U,29526,999,5134,0,.164E-5,0
WILDBLUE-1,2006-054A,2026-06-25T03:30:54.855936,1.00272688,.00016866,2.8238,80.3894,13.8906,120.5330,0,U,29643,999,5387,0,-.42E-6,0
SKYNET 5A,2007-007B,2026-06-25T04:03:38.815200,1.00272032,.00037208,5.3200,73.6454,25.3291,330.4711,0,U,30794,999,7077,0,-.266E-5,0
ANIK F3,2007-009A,2026-06-25T06:54:10.812096,1.00274553,.00028766,1.2187,83.7697,13.2776,161.2350,0,U,31102,999,4664,0,.7E-7,0
ASTRA 1L,2007-016A,2026-06-25T04:58:52.115232,1.00270706,.00056307,1.3427,81.5299,17.0991,224.9403,0,U,31306,999,4506,0,-.176E-5,0
GALAXY 17 (G-17),2007-016B,2026-06-25T03:38:24.137664,1.00271763,.00045341,2.9923,79.8060,15.7957,147.2863,0,U,31307,999,6988,0,-.199E-5,0
INTELSAT 11 (IS-11),2007-044B,2026-06-25T03:49:51.597408,0.99048006,.00029223,3.5864,78.5794,84.1600,258.8083,0,U,32253,999,6852,0,-.13E-6,0
WGS F1 (USA 195),2007-046A,2026-06-25T04:57:38.593152,1.00269399,.0000237,0.0319,83.3541,22.9192,198.9735,0,U,32258,999,5241,0,-.258E-5,0
SKYNET 5B,2007-056B,2026-06-24T23:01:50.983968,1.00270004,.00034154,5.2713,73.4122,23.8058,186.4419,0,U,32294,999,6827,0,.144E-5,0
ASTRA 4A,2007-057A,2026-06-25T05:38:38.624928,1.00270681,.00025605,0.0218,314.1062,138.6668,270.0655,0,U,32299,999,5172,0,.42E-6,0
HORIZONS-2,2007-063B,2026-06-25T03:41:38.826240,1.00271807,.00041306,2.6228,80.5350,4.6739,169.6993,0,U,32388,999,6789,0,-.246E-5,0
THURAYA-3,2008-001A,2026-06-25T04:21:57.951072,1.00008917,.00018521,6.0028,35.8135,142.7498,228.6687,0,U,32404,999,6757,0,.22E-6,0
THOR 5,2008-006A,2026-06-25T05:38:38.624928,1.00271029,.00026533,0.0430,253.1918,202.5292,261.5644,0,U,32487,999,6739,0,0,0
AMC-14,2008-011A,2026-06-24T02:42:00.534816,1.00356055,.00451778,24.0123,20.4352,7.5191,352.4523,0,U,32708,999,6823,0,-.74E-6,0
DIRECTV 11,2008-013A,2026-06-23T22:29:09.002400,1.00272226,.00001619,0.0386,177.2592,263.8545,69.0887,0,U,32729,999,4566,0,-.119E-5,0
ICO G1,2008-016A,2026-06-24T08:24:38.604384,1.00271310,.00024167,5.5304,36.1150,42.0447,227.6453,0,U,32763,999,6661,0,-.169E-5,0
VINASAT-1,2008-018A,2026-06-25T06:22:53.592384,1.00269166,.00016878,0.0259,300.9801,162.4428,37.6312,0,U,32767,999,6667,0,-.319E-5,0
STAR ONE C2,2008-018B,2026-06-25T03:49:38.564832,1.00271663,.0002882,1.2616,82.4045,19.1736,164.1384,0,U,32768,999,6673,0,-.268E-5,0
AMOS-3,2008-022A,2026-06-25T04:15:28.573056,1.00481471,.00024117,0.4763,86.1389,66.2906,229.6180,0,U,32794,999,8241,0,.125E-5,0
GALAXY 18 (G-18),2008-024A,2026-06-24T17:11:40.377984,1.00274091,.00031674,0.0172,343.4433,115.8999,308.4520,0,U,32951,999,4592,0,.33E-6,0
ZHONGXING-9,2008-028A,2026-06-25T04:03:38.815200,1.00271654,.00040334,0.7902,85.2727,351.0153,350.3236,0,U,33051,999,6611,0,-.24E-5,0
SKYNET 5C,2008-030A,2026-06-25T03:57:30.295872,1.00271920,.00043786,3.8095,76.9518,23.5775,214.3628,0,U,33055,999,6603,0,-.133E-5,0
TURKSAT 3A,2008-030B,2026-06-25T04:14:36.156768,1.00275277,.00052755,0.0311,67.6938,10.4391,300.8433,0,U,33056,999,5243,0,.155E-5,0
ECHOSTAR 11,2008-035A,2026-06-25T03:31:24.809088,1.00271812,.00027303,1.0260,84.1079,353.8225,138.4046,0,U,33207,999,5129,0,-.49E-6,0
SUPERBIRD-C2,2008-038A,2026-06-25T06:24:08.472672,1.00273237,.00064058,2.3820,81.1726,26.9652,37.3011,0,U,33274,999,10581,0,-.298E-5,0
INMARSAT 4-F3,2008-039A,2026-06-23T16:15:12.995136,1.00272135,.00026391,4.2975,31.6417,64.6132,321.3927,0,U,33278,999,4661,0,-.138E-5,0
NIMIQ 4,2008-044A,2026-06-25T07:04:34.996800,1.00270156,.00018644,0.0161,311.7309,144.2180,201.6244,0,U,33373,999,6506,0,-.21E-5,0
GALAXY 19 (G-19),2008-045A,2026-06-25T03:35:01.960800,1.00272232,.00028728,0.0450,260.6023,202.5982,126.8539,0,U,33376,999,6498,0,-.13E-5,0
