[{"id":"29272","name":"JCSAT-3A","tle1":"1 29272U 06033A   26176.26520472 -.00000335  00000+0  00000+0 0  9994","tle2":"2 29272   0.0276 295.5435 0002389 162.2123  39.1199  1.00272753 47821"},{"id":"29349","name":"KOREASAT 5 (MUGUNGWHA 5)","tle1":"1 29349U 06034A   26175.97703795 -.00000350  00000+0  00000+0 0  9995","tle2":"2 29349   1.8056  82.9035 0001707  50.7768 244.2343  1.00270862 41399"},{"id":"29494","name":"DIRECTV 9S","tle1":"1 29494U 06043A   26176.14846159 -.00000106  00000+0  00000+0 0  9997","tle2":"2 29494   2.4416  80.8160 0005354  17.3958 127.3223  1.00271747 51465"},{"id":"29495","name":"OPTUS D1","tle1":"1 29495U 06043B   26176.26988475 -.00000176  00000+0  00000+0 0  9996","tle2":"2 29495   3.0558  79.5646 0003708   6.4701  76.5055  1.00271173 72206"},{"id":"29526","name":"BADR-4","tle1":"1 29526U 06051A   26176.21850447  .00000164  00000+0  00000+0 0  9998","tle2":"2 29526   2.0257  81.0445 0005023   4.8852 300.5743  1.00275981 51349"},{"id":"29643","name":"WILDBLUE-1","tle1":"1 29643U 06054A   26176.14646824 -.00000042  00000+0  00000+0 0  9991","tle2":"2 29643   2.8238  80.3894 0001686  13.8906 120.5330  1.00272688 53870"},{"id":"30794","name":"SKYNET 5A","tle1":"1 30794U 07007B   26176.16919925 -.00000266  00000+0  00000+0 0  9994","tle2":"2 30794   5.3200  73.6454 0003720  25.3291 330.4711  1.00272032 70775"},{"id":"31102","name":"ANIK F3","tle1":"1 31102U 07009A   26176.28762514  .00000007  00000+0  00000+0 0  9995","tle2":"2 31102   1.2187  83.7697 0002876  13.2776 161.2350  1.00274553 46642"},{"id":"31306","name":"ASTRA 1L","tle1":"1 31306U 07016A   26176.20754763 -.00000176  00000+0  00000+0 0  9996","tle2":"2 31306   1.3427  81.5299 0005630  17.0991 224.9403  1.00270706 45069"},{"id":"31307","name":"GALAXY 17 (G-17)","tle1":"1 31307U 07016B   26176.15166826 -.00000199  00000+0  00000+0 0  9993","tle2":"2 31307   2.9923  79.8060 0004534  15.7957 147.2863  1.00271763 69880"},{"id":"32253","name":"INTELSAT 11 (IS-11)","tle1":"1 32253U 07044B   26176.15962497 -.00000013  00000+0  00000+0 0  9998","tle2":"2 32253   3.5864  78.5794 0002922  84.1600 258.8083  0.99048006 68528"},{"id":"32258","name":"WGS F1 (USA 195)","tle1":"1 32258U 07046A   26176.20669668 -.00000258  00000+0  00000+0 0  9996","tle2":"2 32258   0.0319  83.3541 0000237  22.9192 198.9735  1.00269399 52419"},{"id":"32294","name":"SKYNET 5B","tle1":"1 32294U 07056B   26175.95961787  .00000144  00000+0  00000+0 0  9998","tle2":"2 32294   5.2713  73.4122 0003415  23.8058 186.4419  1.00270004 68278"},{"id":"32299","name":"ASTRA 4A","tle1":"1 32299U 07057A   26176.23516927  .00000042  00000+0  00000+0 0  9995","tle2":"2 32299   0.0218 314.1062 0002560 138.6668 270.0655  1.00270681 51721"},{"id":"32388","name":"HORIZONS-2","tle1":"1 32388U 07063B   26176.15392160 -.00000246  00000+0  00000+0 0  9990","tle2":"2 32388   2.6228  80.5350 0004130   4.6739 169.6993  1.00271807 67893"},{"id":"32404","name":"THURAYA-3","tle1":"1 32404U 08001A   26176.18192073  .00000022  00000+0  00000+0 0  9997","tle2":"2 32404   6.0028  35.8135 0001852 142.7498 228.6687  1.00008917 67577"},{"id":"32487","name":"THOR 5","tle1":"1 32487U 08006A   26176.23516927  .00000000  00000+0  00000+0 0  9993","tle2":"2 32487   0.0430 253.1918 0002653 202.5292 261.5644  1.00271029 67395"},{"id":"32708","name":"AMC-14","tle1":"1 32708U 08011A   26175.11250619 -.00000074  00000+0  00000+0 0  9996","tle2":"2 32708  24.0123  20.4352 0045177   7.5191 352.4523  1.00356055 68235"},{"id":"32729","name":"DIRECTV 11","tle1":"1 32729U 08013A   26174.93690975 -.00000119  00000+0  00000+0 0  9993","tle2":"2 32729   0.0386 177.2592 0000161 263.8545  69.0887  1.00272226 45667"},{"id":"32763","name":"ICO G1","tle1":"1 32763U 08016A   26175.35044681 -.00000169  00000+0  00000+0 0  9993","tle2":"2 32763   5.5304  36.1150 0002416  42.0447 227.6453  1.00271310 66613"},{"id":"32767","name":"VINASAT-1","tle1":"1 32767U 08018A   26176.26589806 -.00000319  00000+0  00000+0 0  9990","tle2":"2 32767   0.0259 300.9801 0001687 162.4428  37.6312  1.00269166 66671"},{"id":"32768","name":"STAR ONE C2","tle1":"1 32768U 08018B   26176.15947413 -.00000268  00000+0  00000+0 0  9994","tle2":"2 32768   1.2616  82.4045 0002882  19.1736 164.1384  1.00271663 66739"},{"id":"32794","name":"AMOS-3","tle1":"1 32794U 08022A   26176.17741404  .00000125  00000+0  00000+0 0  9993","tle2":"2 32794   0.4763  86.1389 0002411  66.2906 229.6180  1.00481471 82418"},{"id":"32951","name":"GALAXY 18 (G-18)","tle1":"1 32951U 08024A   26175.71643956  .00000033  00000+0  00000+0 0  9990","tle2":"2 32951   0.0172 343.4433 0003167 115.8999 308.4520  1.00274091 45921"},{"id":"33051","name":"ZHONGXING-9","tle1":"1 33051U 08028A   26176.16919925 -.00000240  00000+0  00000+0 0  9999","tle2":"2 33051   0.7902  85.2727 0004033 351.0153 350.3236  1.00271654 66113"},{"id":"33055","name":"SKYNET 5C","tle1":"1 33055U 08030A   26176.16493398 -.00000133  00000+0  00000+0 0  9998","tle2":"2 33055   3.8095  76.9518 0004378  23.5775 214.3628  1.00271920 66033"},{"id":"33056","name":"TURKSAT 3A","tle1":"1 33056U 08030B   26176.17680737  .00000155  00000+0  00000+0 0  9998","tle2":"2 33056   0.0311  67.6938 0005275  10.4391 300.8433  1.00275277 52436"},{"id":"33207","name":"ECHOSTAR 11","tle1":"1 33207U 08035A   26176.14681492 -.00000049  00000+0  00000+0 0  9990","tle2":"2 33207   1.0260  84.1079 0002730 353.8225 138.4046  1.00271812 51290"},{"id":"33274","name":"SUPERBIRD-C2","tle1":"1 33274U 08038A   26176.26676473 -.00000298  00000+0  00000+0 0  9999","tle2":"2 33274   2.3820  81.1726 0006405  26.9652  37.3011  1.00273237105811"},{"id":"33278","name":"INMARSAT 4-F3","tle1":"1 33278U 08039A   26174.67723374 -.00000138  00000+0  00000+0 0  9993","tle2":"2 33278   4.2975  31.6417 0002639  64.6132 321.3927  1.00272135 46611"},{"id":"33373","name":"NIMIQ 4","tle1":"1 33373U 08044A   26176.29484950 -.00000210  00000+0  00000+0 0  9990","tle2":"2 33373   0.0161 311.7309 0001864 144.2180 201.6244  1.00270156 65060"},{"id":"33376","name":"GALAXY 19 (G-19)","tle1":"1 33376U 08045A   26176.14932825 -.00000130  00000+0  00000+0 0  9998","tle2":"2 33376   0.0450 260.6023 0002872 202.5982 126.8539  1.00272232 64989"}]